48333,STARLINK-2518,2021,95.59,260.0,+,53.06,Active,1,LEO,USA,USA,Commercial,Communications,Falcon,1 48333U 21036BK  25295.46981128  .00008716  00000+0  60326-3 0  9996,2 48333  53.0557   2.1106 0001456  99.6449 260.4704 15.06404274247206,15.06404274,0.0001456,LEO
48334,STARLINK-2470,2021,95.59,260.0,+,53.06,Active,1,LEO,USA,USA,Commercial,Communications,Falcon,1 48334U 21036BL  25295.46612414  .00018289  00000+0  12432-2 0  9996,2 48334  53.0550   2.1270 0001306  84.4476 275.6661 15.06408160247206,15.0640816,0.0001306,LEO
48353,STARLINK-2613,2021,95.59,260.0,+,53.05,Active,1,LEO,USA,USA,Commercial,Communications,Falcon,1 48353U 21038A   25295.33526096  .00002509  00000+0  18731-3 0  9992,2 48353  53.0530 262.7162 0001452  94.0767 266.0388 15.06392821246172,15.06392821,0.0001452,LEO
48354,STARLINK-2674,2021,95.59,260.0,+,53.05,Active,1,LEO,USA,USA,Commercial,Communications,Falcon,1 48354U 21038B   25295.19889328  .00008818  00000+0  61046-3 0  9993,2 48354  53.0542 263.3294 0001675  90.6188 269.4993 15.06379874246155,15.06379874,0.0001675,LEO
48355,STARLINK-2635,2021,95.59,260.0,+,53.05,Active,1,LEO,USA,USA,Commercial,Communications,Falcon,1 48355U 21038C   25295.32785507  .00021077  00000+0  14277-2 0  9998,2 48355  53.0539 262.7456 0001931  84.5512 275.5697 15.06449605246174,15.06449605,0.0001931,LEO
48356,STARLINK-2637,2021,95.59,260.0,+,53.06,Active,1,LEO,USA,USA,Commercial,Communications,Falcon,1 48356U 21038D   25295.12515779  .00000761  00000+0  70038-4 0  9995,2 48356  53.0558 263.6611 0001886 114.8249 245.2937 15.06387951246145,15.06387951,0.0001886,LEO
48357,STARLINK-2636,2021,95.59,260.0,+,53.06,Active,1,LEO,USA,USA,Commercial,Communications,Falcon,1 48357U 21038E   25295.22841541  .00001217  00000+0  10066-3 0  9997,2 48357  53.0554 263.6154 0001770  70.0164 290.1015 15.06382978246156,15.06382978,0.000177,LEO
48358,STARLINK-2624,2021,95.59,260.0,+,53.05,Active,1,LEO,USA,USA,Commercial,Communications,Falcon,1 48358U 21038F   25295.31682904  .00008198  00000+0  56855-3 0  9995,2 48358  53.0535 262.7985 0001532  83.8313 276.2851 15.06403053246164,15.06403053,0.0001532,LEO
48359,STARLINK-2628,2021,95.59,260.0,+,53.05,Active,1,LEO,USA,USA,Commercial,Communications,Falcon,1 48359U 21038G   25295.31314439  .00007380  00000+0  51383-3 0  9994,2 48359  53.0540 262.8147 0001690  83.4869 276.6312 15.06399607246164,15.06399607,0.000169,LEO
48360,STARLINK-2622,2021,95.59,260.0,+,53.05,Active,1,LEO,USA,USA,Commercial,Communications,Falcon,1 48360U 21038H   25295.30946593  .00006835  00000+0  47738-3 0  9990,2 48360  53.0528 262.8279 0001542  80.9312 279.1851 15.06396769246161,15.06396769,0.0001542,LEO
48361,STARLINK-2591,2021,95.59,260.0,+,53.05,Active,1,LEO,USA,USA,Commercial,Communications,Falcon,1 48361U 21038J   25295.30578133  .00014511  00000+0  99162-3 0  9990,2 48361  53.0527 262.8446 0001432  88.7152 271.4001 15.06378122246168,15.06378122,0.0001432,LEO
48362,STARLINK-2578,2021,95.59,260.0,+,53.06,Active,1,LEO,USA,USA,Commercial,Communications,Falcon,1 48362U 21038K   25295.20626840  .00001935  00000+0  14882-3 0  9991,2 48362  53.0552 263.3800 0001546  99.6666 260.4497 15.06383591246156,15.06383591,0.0001546,LEO
48363,STARLINK-2626,2021,92.26,260.0,P,53.05,Active,1,LEO,USA,USA,Commercial,Communications,Falcon,1 48363U 21038L   25295.50002315  .00155039  00000+0  17979-2 0  9994,2 48363  53.0542 193.7346 0003637 172.4813 298.1298 15.60793489  5762,15.60793489,0.0003637,LEO
48364,STARLINK-2611,2021,95.59,260.0,+,53.05,Active,1,LEO,USA,USA,Commercial,Communications,Falcon,1 48364U 21038M   25295.29335058  .00005744  00000+0  40421-3 0  9990,2 48364  53.0528 258.0628 0001489  83.5618 276.5541 15.06397675246230,15.06397675,0.0001489,LEO
48365,STARLINK-2608,2021,95.59,260.0,+,53.05,Active,1,LEO,USA,USA,Commercial,Communications,Falcon,1 48365U 21038N   25295.12377174  .00001094  00000+0  92365-4 0  9997,2 48365  53.0546 258.6563 0002190 128.4349 231.6837 15.06393595246210,15.06393595,0.000219,LEO
48367,STARLINK-2643,2021,95.59,260.0,+,53.05,Active,1,LEO,USA,USA,Commercial,Communications,Falcon,1 48367U 21038Q   25295.30667733  .00010041  00000+0  69133-3 0  9990,2 48367  53.0544 252.8411 0001332  92.9578 267.1564 15.06436011246306,15.06436011,0.0001332,LEO
