[{"OBJECT_NAME":"STARLINK-2518","OBJECT_ID":"2021-036BK","EPOCH":"2025-10-22T11:16:31.694592","MEAN_MOTION":15.06404274,"ECCENTRICITY":0.0001456,"INCLINATION":53.0557,"RA_OF_ASC_NODE":2.1106,"ARG_OF_PERICENTER":99.6449,"MEAN_ANOMALY":260.4704,"EPHEMERIS_TYPE":0,"CLASSIFICATION_TYPE":"U","NORAD_CAT_ID":48333,"ELEMENT_SET_NO":999,"REV_AT_EPOCH":24720,"BSTAR":0.00060326,"MEAN_MOTION_DOT":8.716e-5,"MEAN_MOTION_DDOT":0},{"OBJECT_NAME":"STARLINK-2470","OBJECT_ID":"2021-036BL","EPOCH":"2025-10-22T11:11:13.125696","MEAN_MOTION":15.0640816,"ECCENTRICITY":0.0001306,"INCLINATION":53.055,"RA_OF_ASC_NODE":2.127,"ARG_OF_PERICENTER":84.4476,"MEAN_ANOMALY":275.6661,"EPHEMERIS_TYPE":0,"CLASSIFICATION_TYPE":"U","NORAD_CAT_ID":48334,"ELEMENT_SET_NO":999,"REV_AT_EPOCH":24720,"BSTAR":0.0012432,"MEAN_MOTION_DOT":0.00018289,"MEAN_MOTION_DDOT":0},{"OBJECT_NAME":"STARLINK-2613","OBJECT_ID":"2021-038A","EPOCH":"2025-10-22T08:02:46.546944","MEAN_MOTION":15.06392821,"ECCENTRICITY":0.0001452,"INCLINATION":53.053,"RA_OF_ASC_NODE":262.7162,"ARG_OF_PERICENTER":94.0767,"MEAN_ANOMALY":266.0388,"EPHEMERIS_TYPE":0,"CLASSIFICATION_TYPE":"U","NORAD_CAT_ID":48353,"ELEMENT_SET_NO":999,"REV_AT_EPOCH":24617,"BSTAR":0.00018731,"MEAN_MOTION_DOT":2.509e-5,"MEAN_MOTION_DDOT":0},{"OBJECT_NAME":"STARLINK-2674","OBJECT_ID":"2021-038B","EPOCH":"2025-10-22T04:46:24.379392","MEAN_MOTION":15.06379874,"ECCENTRICITY":0.00016754,"INCLINATION":53.0542,"RA_OF_ASC_NODE":263.3294,"ARG_OF_PERICENTER":90.6188,"MEAN_ANOMALY":269.4993,"EPHEMERIS_TYPE":0,"CLASSIFICATION_TYPE":"U","NORAD_CAT_ID":48354,"ELEMENT_SET_NO":999,"REV_AT_EPOCH":24615,"BSTAR":0.00061045605,"MEAN_MOTION_DOT":8.818e-5,"MEAN_MOTION_DDOT":0},{"OBJECT_NAME":"STARLINK-2635","OBJECT_ID":"2021-038C","EPOCH":"2025-10-22T07:52:06.678048","MEAN_MOTION":15.06449605,"ECCENTRICITY":0.0001931,"INCLINATION":53.0539,"RA_OF_ASC_NODE":262.7456,"ARG_OF_PERICENTER":84.5512,"MEAN_ANOMALY":275.5697,"EPHEMERIS_TYPE":0,"CLASSIFICATION_TYPE":"U","NORAD_CAT_ID":48355,"ELEMENT_SET_NO":999,"REV_AT_EPOCH":24617,"BSTAR":0.0014277,"MEAN_MOTION_DOT":0.00021077,"MEAN_MOTION_DDOT":0},{"OBJECT_NAME":"STARLINK-2637","OBJECT_ID":"2021-038D","EPOCH":"2025-10-22T03:00:13.633056","MEAN_MOTION":15.06387951,"ECCENTRICITY":0.00018869,"INCLINATION":53.0558,"RA_OF_ASC_NODE":263.6611,"ARG_OF_PERICENTER":114.8249,"MEAN_ANOMALY":245.2937,"EPHEMERIS_TYPE":0,"CLASSIFICATION_TYPE":"U","NORAD_CAT_ID":48356,"ELEMENT_SET_NO":999,"REV_AT_EPOCH":24614,"BSTAR":7.0038233e-5,"MEAN_MOTION_DOT":7.61e-6,"MEAN_MOTION_DDOT":0},{"OBJECT_NAME":"STARLINK-2636","OBJECT_ID":"2021-038E","EPOCH":"2025-10-22T05:28:55.091424","MEAN_MOTION":15.06382978,"ECCENTRICITY":0.00017701,"INCLINATION":53.0554,"RA_OF_ASC_NODE":263.6154,"ARG_OF_PERICENTER":70.0164,"MEAN_ANOMALY":290.1015,"EPHEMERIS_TYPE":0,"CLASSIFICATION_TYPE":"U","NORAD_CAT_ID":48357,"ELEMENT_SET_NO":999,"REV_AT_EPOCH":24615,"BSTAR":0.00010066051,"MEAN_MOTION_DOT":1.217e-5,"MEAN_MOTION_DDOT":0},{"OBJECT_NAME":"STARLINK-2624","OBJECT_ID":"2021-038F","EPOCH":"2025-10-22T07:36:14.029056","MEAN_MOTION":15.06403053,"ECCENTRICITY":0.0001532,"INCLINATION":53.0535,"RA_OF_ASC_NODE":262.7985,"ARG_OF_PERICENTER":83.8313,"MEAN_ANOMALY":276.2851,"EPHEMERIS_TYPE":0,"CLASSIFICATION_TYPE":"U","NORAD_CAT_ID":48358,"ELEMENT_SET_NO":999,"REV_AT_EPOCH":24616,"BSTAR":0.00056855,"MEAN_MOTION_DOT":8.198e-5,"MEAN_MOTION_DDOT":0},{"OBJECT_NAME":"STARLINK-2628","OBJECT_ID":"2021-038G","EPOCH":"2025-10-22T07:30:55.675296","MEAN_MOTION":15.06399607,"ECCENTRICITY":0.000169,"INCLINATION":53.054,"RA_OF_ASC_NODE":262.8147,"ARG_OF_PERICENTER":83.4869,"MEAN_ANOMALY":276.6312,"EPHEMERIS_TYPE":0,"CLASSIFICATION_TYPE":"U","NORAD_CAT_ID":48359,"ELEMENT_SET_NO":999,"REV_AT_EPOCH":24616,"BSTAR":0.00051383,"MEAN_MOTION_DOT":7.38e-5,"MEAN_MOTION_DDOT":0},{"OBJECT_NAME":"STARLINK-2622","OBJECT_ID":"2021-038H","EPOCH":"2025-10-22T07:25:37.856352","MEAN_MOTION":15.06396769,"ECCENTRICITY":0.00015422,"INCLINATION":53.0528,"RA_OF_ASC_NODE":262.8279,"ARG_OF_PERICENTER":80.9312,"MEAN_ANOMALY":279.1851,"EPHEMERIS_TYPE":0,"CLASSIFICATION_TYPE":"U","NORAD_CAT_ID":48360,"ELEMENT_SET_NO":999,"REV_AT_EPOCH":24616,"BSTAR":0.00047737837,"MEAN_MOTION_DOT":6.835e-5,"MEAN_MOTION_DDOT":0},{"OBJECT_NAME":"STARLINK-2591","OBJECT_ID":"2021-038J","EPOCH":"2025-10-22T07:20:19.506912","MEAN_MOTION":15.06378122,"ECCENTRICITY":0.00014321,"INCLINATION":53.0527,"RA_OF_ASC_NODE":262.8446,"ARG_OF_PERICENTER":88.7152,"MEAN_ANOMALY":271.4001,"EPHEMERIS_TYPE":0,"CLASSIFICATION_TYPE":"U","NORAD_CAT_ID":48361,"ELEMENT_SET_NO":999,"REV_AT_EPOCH":24616,"BSTAR":0.00099162175,"MEAN_MOTION_DOT":0.00014511,"MEAN_MOTION_DDOT":0},{"OBJECT_NAME":"STARLINK-2578","OBJECT_ID":"2021-038K","EPOCH":"2025-10-22T04:57:01.589760","MEAN_MOTION":15.06383591,"ECCENTRICITY":0.0001546,"INCLINATION":53.0552,"RA_OF_ASC_NODE":263.38,"ARG_OF_PERICENTER":99.6666,"MEAN_ANOMALY":260.4497,"EPHEMERIS_TYPE":0,"CLASSIFICATION_TYPE":"U","NORAD_CAT_ID":48362,"ELEMENT_SET_NO":999,"REV_AT_EPOCH":24615,"BSTAR":0.00014881686,"MEAN_MOTION_DOT":1.935e-5,"MEAN_MOTION_DDOT":0},{"OBJECT_NAME":"STARLINK-2626","OBJECT_ID":"2021-038L","EPOCH":"2025-10-22T12:00:02.000160","MEAN_MOTION":15.60793489,"ECCENTRICITY":0.0003637,"INCLINATION":53.0542,"RA_OF_ASC_NODE":193.7346,"ARG_OF_PERICENTER":172.4813,"MEAN_ANOMALY":298.1298,"EPHEMERIS_TYPE":0,"CLASSIFICATION_TYPE":"U","NORAD_CAT_ID":48363,"ELEMENT_SET_NO":999,"REV_AT_EPOCH":576,"BSTAR":0.0017979,"MEAN_MOTION_DOT":0.00155039,"MEAN_MOTION_DDOT":0},{"OBJECT_NAME":"STARLINK-2611","OBJECT_ID":"2021-038M","EPOCH":"2025-10-22T07:02:25.490112","MEAN_MOTION":15.06397675,"ECCENTRICITY":0.00014899,"INCLINATION":53.0528,"RA_OF_ASC_NODE":258.0628,"ARG_OF_PERICENTER":83.5618,"MEAN_ANOMALY":276.5541,"EPHEMERIS_TYPE":0,"CLASSIFICATION_TYPE":"U","NORAD_CAT_ID":48364,"ELEMENT_SET_NO":999,"REV_AT_EPOCH":24623,"BSTAR":0.00040421359,"MEAN_MOTION_DOT":5.744e-5,"MEAN_MOTION_DDOT":0},{"OBJECT_NAME":"STARLINK-2608","OBJECT_ID":"2021-038N","EPOCH":"2025-10-22T02:58:13.878336","MEAN_MOTION":15.06393595,"ECCENTRICITY":0.00021901,"INCLINATION":53.0546,"RA_OF_ASC_NODE":258.6563,"ARG_OF_PERICENTER":128.4349,"MEAN_ANOMALY":231.6837,"EPHEMERIS_TYPE":0,"CLASSIFICATION_TYPE":"U","NORAD_CAT_ID":48365,"ELEMENT_SET_NO":999,"REV_AT_EPOCH":24621,"BSTAR":9.2365364e-5,"MEAN_MOTION_DOT":1.094e-5,"MEAN_MOTION_DDOT":0},{"OBJECT_NAME":"STARLINK-2643","OBJECT_ID":"2021-038Q","EPOCH":"2025-10-22T07:21:36.921312","MEAN_MOTION":15.06436011,"ECCENTRICITY":0.00013322,"INCLINATION":53.0544,"RA_OF_ASC_NODE":252.8411,"ARG_OF_PERICENTER":92.9578,"MEAN_ANOMALY":267.1564,"EPHEMERIS_TYPE":0,"CLASSIFICATION_TYPE":"U","NORAD_CAT_ID":48367,"ELEMENT_SET_NO":999,"REV_AT_EPOCH":24630,"BSTAR":0.00069133134,"MEAN_MOTION_DOT":0.00010041,"MEAN_MOTION_DDOT":0}]
